
# Worst residual: 13.39 km
# MJD 60658.000000 (2024 Dec 14  0:00)
1972-073A = IMP-7 = NORAD 06197
1 06197U 72073A   24349.49919926  .00000000  00000-0  00000-0 0 21829
2 06197 041.6569 066.6389 2885956 164.5835 314.9228 00.08298262    05

# Worst residual: 30.44 km
# MJD 60659.000000 (2024 Dec 15  0:00)
1972-073A = IMP-7 = NORAD 06197
1 06197U 72073A   24350.49919926  .00000000  00000-0  00000-0 0 21821
2 06197 041.6708 066.6513 2938275 164.0771 345.3379 00.08202244    06

# Worst residual: 36.45 km
# MJD 60660.000000 (2024 Dec 16  0:00)
1972-073A = IMP-7 = NORAD 06197
1 06197U 72073A   24351.49919926  .00000000  00000-0  00000-0 0 21822
2 06197 041.6575 066.6222 3028025 164.6705 014.3584 00.08034583    02

# Worst residual: 30.97 km
# MJD 60661.000000 (2024 Dec 17  0:00)
1972-073A = IMP-7 = NORAD 06197
1 06197U 72073A   24352.49919926  .00000000  00000-0  00000-0 0 21823
2 06197 041.6843 066.5659 3025812 165.9181 042.3887 00.07977393    07

# Worst residual: 26.18 km
# MJD 60662.000000 (2024 Dec 18  0:00)
1972-073A = IMP-7 = NORAD 06197
1 06197U 72073A   24353.49919926  .00000000  00000-0  00000-0 0 21824
2 06197 041.7387 066.5394 2977180 165.6142 071.9487 00.08041387    04

# Worst residual: 20.08 km
# MJD 60663.000000 (2024 Dec 19  0:00)
1972-073A = IMP-7 = NORAD 06197
1 06197U 72073A   24354.49919926  .00000000  00000-0  00000-0 0 21825
2 06197 041.7824 066.5333 2960517 164.5376 102.4792 00.08117523    01

# Worst residual: 16.08 km
# MJD 60664.000000 (2024 Dec 20  0:00)
1972-073A = IMP-7 = NORAD 06197
1 06197U 72073A   24355.49919926  .00000000  00000-0  00000-0 0 21826
2 06197 041.8176 066.5088 2968875 163.6581 132.9991 00.08169840    00

# Worst residual: 10.93 km
# MJD 60665.000000 (2024 Dec 21  0:00)
1972-073A = IMP-7 = NORAD 06197
1 06197U 72073A   24356.49919926  .00000000  00000-0  00000-0 0 21827
2 06197 041.8518 066.4713 2983431 163.1901 163.1613 00.08198563    01

# Worst residual: 4.73 km
# MJD 60666.000000 (2024 Dec 22  0:00)
1972-073A = IMP-7 = NORAD 06197
1 06197U 72073A   24357.49919926  .00000000  00000-0  00000-0 0 21828
2 06197 041.8875 066.4274 2995928 163.0544 192.9500 00.08214039    07

# Worst residual: 4.74 km
# MJD 60667.000000 (2024 Dec 23  0:00)
1972-073A = IMP-7 = NORAD 06197
1 06197U 72073A   24358.49919926  .00000000  00000-0  00000-0 0 21829
2 06197 041.9270 066.3811 3005345 163.1629 222.4359 00.08227281    08

# Worst residual: 6.62 km
# MJD 60668.000000 (2024 Dec 24  0:00)
1972-073A = IMP-7 = NORAD 06197
1 06197U 72073A   24359.49919926  .00000000  00000-0  00000-0 0 21820
2 06197 041.9757 066.3397 3012223 163.4527 251.7443 00.08245787    00

# Worst residual: 8.74 km
# MJD 60669.000000 (2024 Dec 25  0:00)
1972-073A = IMP-7 = NORAD 06197
1 06197U 72073A   24360.49919926  .00000000  00000-0  00000-0 0 21822
2 06197 042.0365 066.3201 3017173 163.8058 281.1006 00.08267725    01

# Worst residual: 18.78 km
# MJD 60670.000000 (2024 Dec 26  0:00)
1972-073A = IMP-7 = NORAD 06197
1 06197U 72073A   24361.49919926  .00000000  00000-0  00000-0 0 21823
2 06197 042.0956 066.3457 3029834 163.9511 310.8609 00.08269157    02

# Worst residual: 52.30 km
# MJD 60671.000000 (2024 Dec 27  0:00)
1972-073A = IMP-7 = NORAD 06197
1 06197U 72073A   24362.49919926  .00000000  00000-0  00000-0 0 21824
2 06197 042.1114 066.4049 3089957 163.8620 341.0243 00.08186254    05

# Worst residual: 58.09 km
# MJD 60672.000000 (2024 Dec 28  0:00)
1972-073A = IMP-7 = NORAD 06197
1 06197U 72073A   24363.49919926  .00000000  00000-0  00000-0 0 21825
2 06197 042.0786 066.4001 3209379 164.9183 009.8995 00.07978842    09

# Worst residual: 57.00 km
# MJD 60673.000000 (2024 Dec 29  0:00)
1972-073A = IMP-7 = NORAD 06197
1 06197U 72073A   24364.49919926  .00000000  00000-0  00000-0 0 21826
2 06197 042.1149 066.3507 3207263 166.7405 037.4596 00.07900792    03

# Worst residual: 53.97 km
# MJD 60674.000000 (2024 Dec 30  0:00)
1972-073A = IMP-7 = NORAD 06197
1 06197U 72073A   24365.49919926  .00000000  00000-0  00000-0 0 21827
2 06197 042.1892 066.3450 3098218 166.1738 067.6192 00.08050152    00

# Worst residual: 48.77 km
# MJD 60675.000000 (2024 Dec 31  0:00)
1972-073A = IMP-7 = NORAD 06197
1 06197U 72073A   24366.49919926  .00000000  00000-0  00000-0 0 21828
2 06197 042.2421 066.3550 3033292 164.5707 099.4047 00.08184384    06
